[{"OBJECT_NAME":"ONEWEB-0012","OBJECT_ID":"2019-010A","EPOCH":"2026-04-14T02:40:54.873408","MEAN_MOTION":13.16593262,"ECCENTRICITY":0.000205,"INCLINATION":87.9058,"RA_OF_ASC_NODE":241.514,"ARG_OF_PERICENTER":111.6593,"MEAN_ANOMALY":248.4756,"EPHEMERIS_TYPE":0,"CLASSIFICATION_TYPE":"U","NORAD_CAT_ID":44057,"ELEMENT_SET_NO":999,"REV_AT_EPOCH":34313,"BSTAR":-0.00021313,"MEAN_MOTION_DOT":-6.9e-07,"MEAN_MOTION_DDOT":0.0},{"OBJECT_NAME":"ONEWEB-0010","OBJECT_ID":"2019-010B","EPOCH":"2026-04-14T03:17:23.623008","MEAN_MOTION":13.16593814,"ECCENTRICITY":0.0001981,"INCLINATION":87.9063,"RA_OF_ASC_NODE":241.505,"ARG_OF_PERICENTER":90.905,"MEAN_ANOMALY":269.2308,"EPHEMERIS_TYPE":0,"CLASSIFICATION_TYPE":"U","NORAD_CAT_ID":44058,"ELEMENT_SET_NO":999,"REV_AT_EPOCH":34318,"BSTAR":0.00029570999999999997,"MEAN_MOTION_DOT":1.26e-06,"MEAN_MOTION_DDOT":0.0},{"OBJECT_NAME":"ONEWEB-0008","OBJECT_ID":"2019-010C","EPOCH":"2026-04-14T07:32:44.068416","MEAN_MOTION":13.16594499,"ECCENTRICITY":0.0001614,"INCLINATION":87.906,"RA_OF_ASC_NODE":241.4661,"ARG_OF_PERICENTER":102.7781,"MEAN_ANOMALY":257.3531,"EPHEMERIS_TYPE":0,"CLASSIFICATION_TYPE":"U","NORAD_CAT_ID":44059,"ELEMENT_SET_NO":999,"REV_AT_EPOCH":34332,"BSTAR":-0.00014749,"MEAN_MOTION_DOT":-4.4e-07,"MEAN_MOTION_DDOT":0.0},{"OBJECT_NAME":"ONEWEB-0007","OBJECT_ID":"2019-010D","EPOCH":"2026-04-13T22:02:37.819392","MEAN_MOTION":13.15547756,"ECCENTRICITY":0.0002095,"INCLINATION":87.8935,"RA_OF_ASC_NODE":272.0452,"ARG_OF_PERICENTER":95.6807,"MEAN_ANOMALY":264.4562,"EPHEMERIS_TYPE":0,"CLASSIFICATION_TYPE":"U","NORAD_CAT_ID":44060,"ELEMENT_SET_NO":999,"REV_AT_EPOCH":34292,"BSTAR":0.00031066,"MEAN_MOTION_DOT":1.3e-06,"MEAN_MOTION_DDOT":0.0},{"OBJECT_NAME":"ONEWEB-0006","OBJECT_ID":"2019-010E","EPOCH":"2026-04-14T03:36:53.267328","MEAN_MOTION":13.15549621,"ECCENTRICITY":0.0001922,"INCLINATION":87.8946,"RA_OF_ASC_NODE":271.9564,"ARG_OF_PERICENTER":90.8762,"MEAN_ANOMALY":269.2589,"EPHEMERIS_TYPE":0,"CLASSIFICATION_TYPE":"U","NORAD_CAT_ID":44061,"ELEMENT_SET_NO":999,"REV_AT_EPOCH":34300,"BSTAR":0.00028345,"MEAN_MOTION_DOT":1.2e-06,"MEAN_MOTION_DDOT":0.0},{"OBJECT_NAME":"ONEWEB-0011","OBJECT_ID":"2019-010F","EPOCH":"2026-04-14T04:40:45.599808","MEAN_MOTION":13.15549699,"ECCENTRICITY":0.0001688,"INCLINATION":87.8944,"RA_OF_ASC_NODE":271.9561,"ARG_OF_PERICENTER":89.4044,"MEAN_ANOMALY":270.728,"EPHEMERIS_TYPE":0,"CLASSIFICATION_TYPE":"U","NORAD_CAT_ID":44062,"ELEMENT_SET_NO":999,"REV_AT_EPOCH":34300,"BSTAR":-0.00016678000000000003,"MEAN_MOTION_DOT":-5e-07,"MEAN_MOTION_DDOT":0.0},{"OBJECT_NAME":"ONEWEB-0013","OBJECT_ID":"2020-008A","EPOCH":"2026-04-14T03:18:08.805888","MEAN_MOTION":13.09447112,"ECCENTRICITY":0.0002139,"INCLINATION":87.8486,"RA_OF_ASC_NODE":65.7422,"ARG_OF_PERICENTER":111.0257,"MEAN_ANOMALY":249.1099,"EPHEMERIS_TYPE":0,"CLASSIFICATION_TYPE":"U","NORAD_CAT_ID":45131,"ELEMENT_SET_NO":999,"REV_AT_EPOCH":29768,"BSTAR":-0.001384,"MEAN_MOTION_DOT":-4.64e-06,"MEAN_MOTION_DDOT":0.0},{"OBJECT_NAME":"ONEWEB-0017","OBJECT_ID":"2020-008B","EPOCH":"2026-04-14T02:07:25.729536","MEAN_MOTION":13.10370524,"ECCENTRICITY":0.0002046,"INCLINATION":87.8829,"RA_OF_ASC_NODE":49.0234,"ARG_OF_PERICENTER":74.8254,"MEAN_ANOMALY":285.31,"EPHEMERIS_TYPE":0,"CLASSIFICATION_TYPE":"U","NORAD_CAT_ID":45132,"ELEMENT_SET_NO":999,"REV_AT_EPOCH":29955,"BSTAR":-0.00067611,"MEAN_MOTION_DOT":-2.23e-06,"MEAN_MOTION_DDOT":0.0},{"OBJECT_NAME":"ONEWEB-0020","OBJECT_ID":"2020-008C","EPOCH":"2026-04-14T06:54:15.601248","MEAN_MOTION":13.10377202,"ECCENTRICITY":0.0001902,"INCLINATION":87.8845,"RA_OF_ASC_NODE":48.977,"ARG_OF_PERICENTER":79.4554,"MEAN_ANOMALY":280.6788,"EPHEMERIS_TYPE":0,"CLASSIFICATION_TYPE":"U","NORAD_CAT_ID":45133,"ELEMENT_SET_NO":999,"REV_AT_EPOCH":29997,"BSTAR":0.0018966,"MEAN_MOTION_DOT":6.75e-06,"MEAN_MOTION_DDOT":0.0},{"OBJECT_NAME":"ONEWEB-0021","OBJECT_ID":"2020-008D","EPOCH":"2026-04-14T01:45:55.353312","MEAN_MOTION":13.10369338,"ECCENTRICITY":0.000197,"INCLINATION":87.883,"RA_OF_ASC_NODE":49.0414,"ARG_OF_PERICENTER":81.5694,"MEAN_ANOMALY":278.5656,"EPHEMERIS_TYPE":0,"CLASSIFICATION_TYPE":"U","NORAD_CAT_ID":45134,"ELEMENT_SET_NO":999,"REV_AT_EPOCH":30025,"BSTAR":0.0012035,"MEAN_MOTION_DOT":4.33e-06,"MEAN_MOTION_DDOT":0.0},{"OBJECT_NAME":"ONEWEB-0023","OBJECT_ID":"2020-008F","EPOCH":"2026-04-14T02:01:27.413184","MEAN_MOTION":13.10369286,"ECCENTRICITY":0.0001865,"INCLINATION":87.883,"RA_OF_ASC_NODE":49.0184,"ARG_OF_PERICENTER":85.0142,"MEAN_ANOMALY":275.1199,"EPHEMERIS_TYPE":0,"CLASSIFICATION_TYPE":"U","NORAD_CAT_ID":45136,"ELEMENT_SET_NO":999,"REV_AT_EPOCH":29968,"BSTAR":-0.00013969999999999998,"MEAN_MOTION_DOT":-3.6e-07,"MEAN_MOTION_DDOT":0.0},{"OBJECT_NAME":"ONEWEB-0024","OBJECT_ID":"2020-008G","EPOCH":"2026-04-14T06:51:52.483968","MEAN_MOTION":13.10376963,"ECCENTRICITY":0.0001942,"INCLINATION":87.8846,"RA_OF_ASC_NODE":48.9669,"ARG_OF_PERICENTER":78.7962,"MEAN_ANOMALY":281.3384,"EPHEMERIS_TYPE":0,"CLASSIFICATION_TYPE":"U","NORAD_CAT_ID":45137,"ELEMENT_SET_NO":999,"REV_AT_EPOCH":29987,"BSTAR":0.0015905,"MEAN_MOTION_DOT":5.68e-06,"MEAN_MOTION_DDOT":0.0},{"OBJECT_NAME":"ONEWEB-0025","OBJECT_ID":"2020-008H","EPOCH":"2026-04-14T06:48:17.462880","MEAN_MOTION":13.10371634,"ECCENTRICITY":0.0002017,"INCLINATION":87.8851,"RA_OF_ASC_NODE":48.9543,"ARG_OF_PERICENTER":82.7181,"MEAN_ANOMALY":277.4175,"EPHEMERIS_TYPE":0,"CLASSIFICATION_TYPE":"U","NORAD_CAT_ID":45138,"ELEMENT_SET_NO":999,"REV_AT_EPOCH":30020,"BSTAR":-0.0014037,"MEAN_MOTION_DOT":-4.77e-06,"MEAN_MOTION_DDOT":0.0},{"OBJECT_NAME":"ONEWEB-0026","OBJECT_ID":"2020-008J","EPOCH":"2026-04-14T05:19:29.422848","MEAN_MOTION":13.1141757,"ECCENTRICITY":0.0001891,"INCLINATION":87.8929,"RA_OF_ASC_NODE":33.7813,"ARG_OF_PERICENTER":73.1034,"MEAN_ANOMALY":287.0301,"EPHEMERIS_TYPE":0,"CLASSIFICATION_TYPE":"U","NORAD_CAT_ID":45139,"ELEMENT_SET_NO":999,"REV_AT_EPOCH":30272,"BSTAR":-0.0011504,"MEAN_MOTION_DOT":-3.95e-06,"MEAN_MOTION_DDOT":0.0},{"OBJECT_NAME":"ONEWEB-0028","OBJECT_ID":"2020-008K","EPOCH":"2026-04-14T02:27:22.974336","MEAN_MOTION":13.1141469,"ECCENTRICITY":0.0001896,"INCLINATION":87.8915,"RA_OF_ASC_NODE":33.8099,"ARG_OF_PERICENTER":95.9866,"MEAN_ANOMALY":264.1478,"EPHEMERIS_TYPE":0,"CLASSIFICATION_TYPE":"U","NORAD_CAT_ID":45140,"ELEMENT_SET_NO":999,"REV_AT_EPOCH":30022,"BSTAR":0.0014188,"MEAN_MOTION_DOT":5.16e-06,"MEAN_MOTION_DDOT":0.0},{"OBJECT_NAME":"ONEWEB-0032","OBJECT_ID":"2020-008L","EPOCH":"2026-04-14T02:09:48.032064","MEAN_MOTION":13.10368709,"ECCENTRICITY":0.0001857,"INCLINATION":87.8826,"RA_OF_ASC_NODE":49.0244,"ARG_OF_PERICENTER":95.3213,"MEAN_ANOMALY":264.8127,"EPHEMERIS_TYPE":0,"CLASSIFICATION_TYPE":"U","NORAD_CAT_ID":45141,"ELEMENT_SET_NO":999,"REV_AT_EPOCH":29990,"BSTAR":-0.0010986,"MEAN_MOTION_DOT":-3.71e-06,"MEAN_MOTION_DDOT":0.0}]