ONEWEB-0012             
1 44057U 19010A   26104.11174622 -.00000069  00000+0 -21313-3 0  9997
2 44057  87.9058 241.5140 0002050 111.6593 248.4756 13.16593262343137
ONEWEB-0010             
1 44058U 19010B   26104.13707897  .00000126  00000+0  29571-3 0  9992
2 44058  87.9063 241.5050 0001981  90.9050 269.2308 13.16593814343185
ONEWEB-0008             
1 44059U 19010C   26104.31439894 -.00000044  00000+0 -14749-3 0  9994
2 44059  87.9060 241.4661 0001614 102.7781 257.3531 13.16594499343328
ONEWEB-0007             
1 44060U 19010D   26103.91849328  .00000130  00000+0  31066-3 0  9993
2 44060  87.8935 272.0452 0002095  95.6807 264.4562 13.15547756342922
ONEWEB-0006             
1 44061U 19010E   26104.15061652  .00000120  00000+0  28345-3 0  9992
2 44061  87.8946 271.9564 0001922  90.8762 269.2589 13.15549621343007
ONEWEB-0011             
1 44062U 19010F   26104.19497222 -.00000050  00000+0 -16678-3 0  9993
2 44062  87.8944 271.9561 0001688  89.4044 270.7280 13.15549699343009
ONEWEB-0013             
1 45131U 20008A   26104.13760192 -.00000464  00000+0 -13840-2 0  9999
2 45131  87.8486  65.7422 0002139 111.0257 249.1099 13.09447112297683
ONEWEB-0017             
1 45132U 20008B   26104.08849224 -.00000223  00000+0 -67611-3 0  9997
2 45132  87.8829  49.0234 0002046  74.8254 285.3100 13.10370524299558
ONEWEB-0020             
1 45133U 20008C   26104.28768057  .00000675  00000+0  18966-2 0  9991
2 45133  87.8845  48.9770 0001902  79.4554 280.6788 13.10377202299970
ONEWEB-0021             
1 45134U 20008D   26104.07355733  .00000433  00000+0  12035-2 0  9995
2 45134  87.8830  49.0414 0001970  81.5694 278.5656 13.10369338300251
ONEWEB-0023             
1 45136U 20008F   26104.08434506 -.00000036  00000+0 -13970-3 0  9995
2 45136  87.8830  49.0184 0001865  85.0142 275.1199 13.10369286299688
ONEWEB-0024             
1 45137U 20008G   26104.28602412  .00000568  00000+0  15905-2 0  9998
2 45137  87.8846  48.9669 0001942  78.7962 281.3384 13.10376963299873
ONEWEB-0025             
1 45138U 20008H   26104.28353545 -.00000477  00000+0 -14037-2 0  9995
2 45138  87.8851  48.9543 0002017  82.7181 277.4175 13.10371634300207
ONEWEB-0026             
1 45139U 20008J   26104.22186832 -.00000395  00000+0 -11504-2 0  9998
2 45139  87.8929  33.7813 0001891  73.1034 287.0301 13.11417570302724
ONEWEB-0028             
1 45140U 20008K   26104.10234924  .00000516  00000+0  14188-2 0  9997
2 45140  87.8915  33.8099 0001896  95.9866 264.1478 13.11414690300222
ONEWEB-0032             
1 45141U 20008L   26104.09013926 -.00000371  00000+0 -10986-2 0  9996
2 45141  87.8826  49.0244 0001857  95.3213 264.8127 13.10368709299900
